{"type": "FeatureCollection", "features": [ {"type": "Feature", "properties": {"norad_id": 38726, "name": "FENGYUN 1C DEB", "group": "fengyun-1c-debris", "lat": -23.604908896745293, "lon": -176.17556648284594, "alt_km": 559.3871000913932, "timestamp": "2025-12-10T05:46:14.113093+00:00", "meta": {"OBJECT_NAME": "FENGYUN 1C DEB", "OBJECT_ID": "1999-025ETT", "EPOCH": "2025-12-08T19:18:00.685440", "MEAN_MOTION": 15.02174528, "ECCENTRICITY": 0.0023326, "INCLINATION": 99.1364, "RA_OF_ASC_NODE": 6.1671, "ARG_OF_PERICENTER": 137.4712, "MEAN_ANOMALY": 222.8321, "EPHEMERIS_TYPE": 0, "CLASSIFICATION_TYPE": "U", "NORAD_CAT_ID": 38726, "ELEMENT_SET_NO": 999, "REV_AT_EPOCH": 69796, "BSTAR": 0.0084230601, "MEAN_MOTION_DOT": 0.00113178, "MEAN_MOTION_DDOT": 0}, "tle": {"line1": "1 38726U 99025ETT 25342.80417460  .00113178  00000+0  84231-2 0  9997", "line2": "2 38726  99.1364   6.1671 0023326 137.4712 222.8321 15.02174528697964"}}, "geometry": {"type": "Point", "coordinates": [-176.17556648284594, -23.604908896745293]}}, {"type": "Feature", "properties": {"norad_id": 38728, "name": "FENGYUN 1C DEB", "group": "fengyun-1c-debris", "lat": 49.92595553541884, "lon": -39.934829174397706, "alt_km": 602.6964774759608, "timestamp": "2025-12-10T05:46:14.113103+00:00", "meta": {"OBJECT_NAME": "FENGYUN 1C DEB", "OBJECT_ID": "1999-025ETV", "EPOCH": "2025-12-06T05:29:30.081696", "MEAN_MOTION": 14.70418681, "ECCENTRICITY": 0.0075523, "INCLINATION": 99.2588, "RA_OF_ASC_NODE": 326.6948, "ARG_OF_PERICENTER": 74.331, "MEAN_ANOMALY": 352.8104, "EPHEMERIS_TYPE": 0, "CLASSIFICATION_TYPE": "U", "NORAD_CAT_ID": 38728, "ELEMENT_SET_NO": 999, "REV_AT_EPOCH": 65515, "BSTAR": 0.0019460135, "MEAN_MOTION_DOT": 0.00012268, "MEAN_MOTION_DDOT": 0}, "tle": {"line1": "1 38728U 99025ETV 25340.22882039  .00012268  00000+0  19460-2 0  9991", "line2": "2 38728  99.2588 326.6948 0075523  74.3310 352.8104 14.70418681655154"}}, "geometry": {"type": "Point", "coordinates": [-39.934829174397706, 49.92595553541884]}}, {"type": "Feature", "properties": {"norad_id": 38789, "name": "FENGYUN 1C DEB", "group": "fengyun-1c-debris", "lat": -36.57857888400927, "lon": 43.56018114370759, "alt_km": 893.4330117820064, "timestamp": "2025-12-10T05:46:14.113114+00:00", "meta": {"OBJECT_NAME": "FENGYUN 1C DEB", "OBJECT_ID": "1999-025EUD", "EPOCH": "2025-12-06T22:47:22.321824", "MEAN_MOTION": 14.45753733, "ECCENTRICITY": 0.02081012, "INCLINATION": 98.8563, "RA_OF_ASC_NODE": 226.768, "ARG_OF_PERICENTER": 42.5488, "MEAN_ANOMALY": 336.2206, "EPHEMERIS_TYPE": 0, "CLASSIFICATION_TYPE": "U", "NORAD_CAT_ID": 38789, "ELEMENT_SET_NO": 999, "REV_AT_EPOCH": 61762, "BSTAR": 0.0010174555, "MEAN_MOTION_DOT": 4.662e-05, "MEAN_MOTION_DDOT": 0}, "tle": {"line1": "1 38789U 99025EUD 25340.94956391  .00004662  00000+0  10175-2 0  9993", "line2": "2 38789  98.8563 226.7680 0208101  42.5488 336.2206 14.45753733617626"}}, "geometry": {"type": "Point", "coordinates": [43.56018114370759, -36.57857888400927]}}, {"type": "Feature", "properties": {"norad_id": 38795, "name": "FENGYUN 1C DEB", "group": "fengyun-1c-debris", "lat": -47.505481761191604, "lon": 17.189274712464645, "alt_km": 899.1648264496216, "timestamp": "2025-12-10T05:46:14.113124+00:00", "meta": {"OBJECT_NAME": "FENGYUN 1C DEB", "OBJECT_ID": "1999-025EUK", "EPOCH": "2025-12-09T08:20:16.870272", "MEAN_MOTION": 13.29873446, "ECCENTRICITY": 0.05024228, "INCLINATION": 98.6999, "RA_OF_ASC_NODE": 6.8116, "ARG_OF_PERICENTER": 264.2547, "MEAN_ANOMALY": 90.1112, "EPHEMERIS_TYPE": 0, "CLASSIFICATION_TYPE": "U", "NORAD_CAT_ID": 38795, "ELEMENT_SET_NO": 999, "REV_AT_EPOCH": 78467, "BSTAR": 0.005100856, "MEAN_MOTION_DOT": 4.746e-05, "MEAN_MOTION_DDOT": 0}, "tle": {"line1": "1 38795U 99025EUK 25343.34741748  .00004746  00000+0  51009-2 0  9999", "line2": "2 38795  98.6999   6.8116 0502422 264.2547  90.1112 13.29873446784674"}}, "geometry": {"type": "Point", "coordinates": [17.189274712464645, -47.505481761191604]}}, {"type": "Feature", "properties": {"norad_id": 38797, "name": "FENGYUN 1C DEB", "group": "fengyun-1c-debris", "lat": -15.577131202676537, "lon": 54.4897638784723, "alt_km": 879.3970558656265, "timestamp": "2025-12-10T05:46:14.113134+00:00", "meta": {"OBJECT_NAME": "FENGYUN 1C DEB", "OBJECT_ID": "1999-025EUM", "EPOCH": "2025-12-08T10:28:09.847776", "MEAN_MOTION": 13.61607637, "ECCENTRICITY": 0.0245005, "INCLINATION": 99.4848, "RA_OF_ASC_NODE": 235.4069, "ARG_OF_PERICENTER": 232.356, "MEAN_ANOMALY": 125.5125, "EPHEMERIS_TYPE": 0, "CLASSIFICATION_TYPE": "U", "NORAD_CAT_ID": 38797, "ELEMENT_SET_NO": 999, "REV_AT_EPOCH": 59224, "BSTAR": 0.000515849, "MEAN_MOTION_DOT": 4.38e-06, "MEAN_MOTION_DDOT": 0}, "tle": {"line1": "1 38797U 99025EUM 25342.43622509  .00000438  00000+0  51585-3 0  9997", "line2": "2 38797  99.4848 235.4069 0245005 232.3560 125.5125 13.61607637592247"}}, "geometry": {"type": "Point", "coordinates": [54.4897638784723, -15.577131202676537]}}, {"type": "Feature", "properties": {"norad_id": 38799, "name": "FENGYUN 1C DEB", "group": "fengyun-1c-debris", "lat": 34.71957730517185, "lon": -114.41193533974383, "alt_km": 824.4393120361256, "timestamp": "2025-12-10T05:46:14.113144+00:00", "meta": {"OBJECT_NAME": "FENGYUN 1C DEB", "OBJECT_ID": "1999-025EUP", "EPOCH": "2025-12-07T22:24:30.590496", "MEAN_MOTION": 14.4868874, "ECCENTRICITY": 0.01640713, "INCLINATION": 98.4063, "RA_OF_ASC_NODE": 57.4094, "ARG_OF_PERICENTER": 5.0879, "MEAN_ANOMALY": 355.1934, "EPHEMERIS_TYPE": 0, "CLASSIFICATION_TYPE": "U", "NORAD_CAT_ID": 38799, "ELEMENT_SET_NO": 999, "REV_AT_EPOCH": 63969, "BSTAR": 0.00109493, "MEAN_MOTION_DOT": 4.844e-05, "MEAN_MOTION_DDOT": 0}, "tle": {"line1": "1 38799U 99025EUP 25341.93368739  .00004844  00000+0  10949-2 0  9998", "line2": "2 38799  98.4063  57.4094 0164071   5.0879 355.1934 14.48688740639698"}}, "geometry": {"type": "Point", "coordinates": [-114.41193533974383, 34.71957730517185]}}, {"type": "Feature", "properties": {"norad_id": 38801, "name": "FENGYUN 1C DEB", "group": "fengyun-1c-debris", "lat": -81.58940182882843, "lon": 119.9991943815837, "alt_km": 801.8165071293533, "timestamp": "2025-12-10T05:46:14.113154+00:00", "meta": {"OBJECT_NAME": "FENGYUN 1C DEB", "OBJECT_ID": "1999-025EUR", "EPOCH": "2025-12-09T10:00:23.128704", "MEAN_MOTION": 14.24790723, "ECCENTRICITY": 0.03472611, "INCLINATION": 98.3741, "RA_OF_ASC_NODE": 34.1842, "ARG_OF_PERICENTER": 1.7583, "MEAN_ANOMALY": 11.3866, "EPHEMERIS_TYPE": 0, "CLASSIFICATION_TYPE": "U", "NORAD_CAT_ID": 38801, "ELEMENT_SET_NO": 999, "REV_AT_EPOCH": 64313, "BSTAR": 0.00080786279, "MEAN_MOTION_DOT": 3.493e-05, "MEAN_MOTION_DDOT": 0}, "tle": {"line1": "1 38801U 99025EUR 25343.41693436  .00003493  00000+0  80786-3 0  9998", "line2": "2 38801  98.3741  34.1842 0347261   1.7583  11.3866 14.24790723643134"}}, "geometry": {"type": "Point", "coordinates": [119.9991943815837, -81.58940182882843]}}, {"type": "Feature", "properties": {"norad_id": 38803, "name": "FENGYUN 1C DEB", "group": "fengyun-1c-debris", "lat": 25.211640361105847, "lon": 172.33270340675602, "alt_km": 828.7766593246561, "timestamp": "2025-12-10T05:46:14.113163+00:00", "meta": {"OBJECT_NAME": "FENGYUN 1C DEB", "OBJECT_ID": "1999-025EUT", "EPOCH": "2025-12-02T23:18:31.375872", "MEAN_MOTION": 14.23518858, "ECCENTRICITY": 0.00644877, "INCLINATION": 99.1384, "RA_OF_ASC_NODE": 340.4394, "ARG_OF_PERICENTER": 63.9975, "MEAN_ANOMALY": 296.7825, "EPHEMERIS_TYPE": 0, "CLASSIFICATION_TYPE": "U", "NORAD_CAT_ID": 38803, "ELEMENT_SET_NO": 999, "REV_AT_EPOCH": 60073, "BSTAR": 0.0027014694, "MEAN_MOTION_DOT": 6.236e-05, "MEAN_MOTION_DDOT": 0}, "tle": {"line1": "1 38803U 99025EUT 25336.97119648  .00006236  00000+0  27015-2 0  9994", "line2": "2 38803  99.1384 340.4394 0064487  63.9975 296.7825 14.23518858600733"}}, "geometry": {"type": "Point", "coordinates": [172.33270340675602, 25.211640361105847]}}, {"type": "Feature", "properties": {"norad_id": 38809, "name": "FENGYUN 1C DEB", "group": "fengyun-1c-debris", "lat": 24.120851584735153, "lon": 178.37052789825998, "alt_km": 991.8920429368291, "timestamp": "2025-12-10T05:46:14.113173+00:00", "meta": {"OBJECT_NAME": "FENGYUN 1C DEB", "OBJECT_ID": "1999-025EUZ", "EPOCH": "2025-12-08T19:10:11.113536", "MEAN_MOTION": 14.18156622, "ECCENTRICITY": 0.02232561, "INCLINATION": 98.5898, "RA_OF_ASC_NODE": 353.0934, "ARG_OF_PERICENTER": 339.344, "MEAN_ANOMALY": 19.8816, "EPHEMERIS_TYPE": 0, "CLASSIFICATION_TYPE": "U", "NORAD_CAT_ID": 38809, "ELEMENT_SET_NO": 999, "REV_AT_EPOCH": 69150, "BSTAR": 0.0011631217, "MEAN_MOTION_DOT": 3.011e-05, "MEAN_MOTION_DDOT": 0}, "tle": {"line1": "1 38809U 99025EUZ 25342.79873974  .00003011  00000+0  11631-2 0  9991", "line2": "2 38809  98.5898 353.0934 0223256 339.3440  19.8816 14.18156622691500"}}, "geometry": {"type": "Point", "coordinates": [178.37052789825998, 24.120851584735153]}}, {"type": "Feature", "properties": {"norad_id": 38813, "name": "FENGYUN 1C DEB", "group": "fengyun-1c-debris", "lat": -59.0394369215339, "lon": 145.33311830453775, "alt_km": 834.2211921779626, "timestamp": "2025-12-10T05:46:14.113183+00:00", "meta": {"OBJECT_NAME": "FENGYUN 1C DEB", "OBJECT_ID": "1999-025EVD", "EPOCH": "2025-12-08T17:08:03.862176", "MEAN_MOTION": 14.20152053, "ECCENTRICITY": 0.00064061, "INCLINATION": 99.3455, "RA_OF_ASC_NODE": 339.6538, "ARG_OF_PERICENTER": 124.1516, "MEAN_ANOMALY": 236.0267, "EPHEMERIS_TYPE": 0, "CLASSIFICATION_TYPE": "U", "NORAD_CAT_ID": 38813, "ELEMENT_SET_NO": 999, "REV_AT_EPOCH": 48193, "BSTAR": 0.00094402438, "MEAN_MOTION_DOT": 1.965e-05, "MEAN_MOTION_DDOT": 0}, "tle": {"line1": "1 38813U 99025EVD 25342.71393359  .00001965  00000+0  94402-3 0  9996", "line2": "2 38813  99.3455 339.6538 0006406 124.1516 236.0267 14.20152053481937"}}, "geometry": {"type": "Point", "coordinates": [145.33311830453775, -59.0394369215339]}}]}